NORAD_CAT_ID,OBJECT_NAME,OBJECT_TYPE,EPOCH,MEAN_MOTION,ECCENTRICITY,INCLINATION,RA_OF_ASC_NODE,ARG_OF_PERICENTER,MEAN_ANOMALY,BSTAR,MEAN_MOTION_DOT,MEAN_MOTION_DDOT,TLE_LINE0,TLE_LINE1,TLE_LINE2,SEMIMAJOR_AXIS,PERIOD,APOGEE,PERIGEE,DECAYED
56817.0,STARLINK-5982,PAYLOAD,2023-12-31 22:00:18,14.98330906,0.0002437,69.9995,198.3668,267.7847,92.3033,9.1865e-07,-8.2e-07,0.0,0 STARLINK-5982,1 56817U 23078BC  23365.91688637 -.00000082  00000-0  91865-6 0  9990,2 56817  69.9995 198.3668 0002437 267.7847  92.3033 14.98330906 33036,6950.19,96.107,573.749,570.361,0.0
56817.0,STARLINK-5982,PAYLOAD,2024-01-01 12:25:31,14.98330895,0.0002446,69.9994,196.8518,267.4301,92.6578,-2.0637e-06,-1.18e-06,0.0,0 STARLINK-5982,1 56817U 23078BC  24001.51772585 -.00000118  00000-0 -20637-5 0  9999,2 56817  69.9994 196.8518 0002446 267.4301  92.6578 14.98330895 33386,6950.19,96.107,573.755,570.355,0.0
56817.0,STARLINK-5982,PAYLOAD,2024-01-01 14:01:39,14.9833093,0.0002442,69.9994,196.6835,267.557,92.531,-1.647e-06,-1.13e-06,0.0,0 STARLINK-5982,1 56817U 23078BC  24001.58448572 -.00000113  00000-0 -16470-5 0  9997,2 56817  69.9994 196.6835 0002442 267.5570  92.5310 14.98330930 33137,6950.19,96.107,573.752,570.358,0.0
56817.0,STARLINK-5982,PAYLOAD,2024-01-01 22:02:19,14.9833152,0.0002439,69.9994,195.842,267.7308,92.3572,5.5181e-06,-2.7e-07,0.0,0 STARLINK-5982,1 56817U 23078BC  24001.91828479 -.00000027  00000-0  55181-5 0  9997,2 56817  69.9994 195.8420 0002439 267.7308  92.3572 14.98331520 33184,6950.188,96.107,573.748,570.358,0.0
56817.0,STARLINK-5982,PAYLOAD,2024-01-02 12:27:31,14.98335586,0.0002542,69.9992,194.3269,271.4261,88.6607,3.5038e-05,3.25e-06,0.0,0 STARLINK-5982,1 56817U 23078BC  24002.51912005  .00000325  00000-0  35038-4 0  9991,2 56817  69.9992 194.3269 0002542 271.4261  88.6607 14.98335586 33534,6950.176,96.107,573.807,570.274,0.0
56817.0,STARLINK-5982,PAYLOAD,2024-01-02 14:03:40,14.98335621,0.0002541,69.9992,194.1586,271.4113,88.6755,3.4707e-05,3.21e-06,0.0,0 STARLINK-5982,1 56817U 23078BC  24002.58587976  .00000321  00000-0  34707-4 0  9991,2 56817  69.9992 194.1586 0002541 271.4113  88.6755 14.98335621 33285,6950.176,96.107,573.807,570.274,0.0
56817.0,STARLINK-5982,PAYLOAD,2024-01-02 18:52:03,14.9835134,0.0001739,70.0025,193.6572,239.2162,120.8826,4.3938e-05,4.32e-06,0.0,0 STARLINK-5982,1 56817U 23078BC  24002.78614798  .00000432  00000-0  43938-4 0  9995,2 56817  70.0025 193.6572 0001739 239.2162 120.8826 14.98351340 33574,6950.127,96.106,573.201,570.783,0.0
56817.0,STARLINK-5982,PAYLOAD,2024-01-02 22:04:18,14.98352383,0.0002278,69.9995,193.317,268.68,91.4098,0.00021244,2.444e-05,0.0,0 STARLINK-5982,1 56817U 23078BC  24002.91966095  .00002444  00000-0  21244-3 0  9990,2 56817  69.9995 193.3170 0002278 268.6800  91.4098 14.98352383 33338,6950.124,96.106,573.572,570.405,0.0
56817.0,STARLINK-5982,PAYLOAD,2024-01-03 14:05:40,14.98325258,0.0003141,69.999,191.6334,282.317,77.7637,-0.00013566,-1.711e-05,0.0,0 STARLINK-5982,1 56817U 23078BC  24003.58727651 -.00001711  00000-0 -13566-3 0  9993,2 56817  69.9990 191.6334 0003141 282.3170  77.7637 14.98325258 33437,6950.208,96.107,574.256,569.889,0.0
56817.0,STARLINK-5982,PAYLOAD,2024-01-03 18:54:04,14.98324765,0.0002492,69.9994,191.1287,268.1492,91.9381,-0.00013432,-1.695e-05,0.0,0 STARLINK-5982,1 56817U 23078BC  24003.78755631 -.00001695  00000-0 -13432-3 0  9997,2 56817  69.9994 191.1287 0002492 268.1492  91.9381 14.98324765 33728,6950.209,96.107,573.806,570.342,0.0
56817.0,STARLINK-5982,PAYLOAD,2024-01-03 22:06:20,14.98326953,0.0002544,69.9992,190.7922,269.0386,91.0481,-0.00011189,-1.428e-05,0.0,0 STARLINK-5982,1 56817U 23078BC  24003.92107399 -.00001428  00000-0 -11189-3 0  9996,2 56817  69.9992 190.7922 0002544 269.0386  91.0481 14.98326953 33483,6950.202,96.107,573.835,570.299,0.0
56817.0,STARLINK-5982,PAYLOAD,2024-01-04 12:31:33,14.98336886,0.0002469,69.9992,189.2765,271.9278,88.1599,-0.00029872,-3.656e-05,0.0,0 STARLINK-5982,1 56817U 23078BC  24004.52191393 -.00003656  00000-0 -29872-3 0  9993,2 56817  69.9992 189.2765 0002469 271.9278  88.1599 14.98336886 33831,6950.172,96.107,573.753,570.321,0.0
56817.0,STARLINK-5982,PAYLOAD,2024-01-04 14:07:41,14.98335548,0.0002624,69.9989,189.1082,275.6819,84.4041,-0.00030962,-3.786e-05,0.0,0 STARLINK-5982,1 56817U 23078BC  24004.58867491 -.00003786  00000-0 -30962-3 0  9994,2 56817  69.9989 189.1082 0002624 275.6819  84.4041 14.98335548 33580,6950.176,96.107,573.864,570.217,0.0
56817.0,STARLINK-5982,PAYLOAD,2024-01-04 22:08:21,14.98334088,0.0002457,69.9994,188.2674,270.9302,89.1576,-0.00028281,-3.466e-05,0.0,0 STARLINK-5982,1 56817U 23078BC  24004.92247364 -.00003466  00000-0 -28281-3 0  9999,2 56817  69.9994 188.2674 0002457 270.9302  89.1576 14.98334088 33631,6950.18,96.107,573.753,570.338,0.0
56817.0,STARLINK-5982,PAYLOAD,2024-01-05 12:33:34,14.9831669,0.0002609,69.9993,186.7525,271.5441,88.5419,2.1924e-05,1.69e-06,0.0,0 STARLINK-5982,1 56817U 23078BC  24005.52331433  .00000169  00000-0  21924-4 0  9990,2 56817  69.9993 186.7525 0002609 271.5441  88.5419 14.98316690 33984,6950.234,96.108,573.912,570.286,0.0
56817.0,STARLINK-5982,PAYLOAD,2024-01-05 14:09:42,14.98316763,0.000261,69.9993,186.5841,271.5244,88.5616,2.2366e-05,1.74e-06,0.0,0 STARLINK-5982,1 56817U 23078BC  24005.59007484  .00000174  00000-0  22366-4 0  9990,2 56817  69.9993 186.5841 0002610 271.5244  88.5616 14.98316763 33739,6950.234,96.108,573.913,570.285,0.0
56817.0,STARLINK-5982,PAYLOAD,2024-01-05 22:10:22,14.98317887,0.00026,69.9994,185.7427,271.438,88.6481,3.3278e-05,3.04e-06,0.0,0 STARLINK-5982,1 56817U 23078BC  24005.92387665  .00000304  00000-0  33278-4 0  9998,2 56817  69.9994 185.7427 0002600 271.4380  88.6481 14.98317887 33784,6950.23,96.108,573.902,570.288,0.0
56817.0,STARLINK-5982,PAYLOAD,2024-01-06 12:35:35,14.9832038,0.0002679,69.9994,184.2278,273.9743,86.1109,4.9964e-05,5.03e-06,0.0,0 STARLINK-5982,1 56817U 23078BC  24006.52471878  .00000503  00000-0  49964-4 0  9995,2 56817  69.9994 184.2278 0002679 273.9743  86.1109 14.98320380 34130,6950.223,96.108,573.95,570.226,0.0
56817.0,STARLINK-5982,PAYLOAD,2024-01-06 22:12:24,14.98322342,0.0002651,69.9996,183.218,274.3374,85.7482,6.7841e-05,7.16e-06,0.0,0 STARLINK-5982,1 56817U 23078BC  24006.92527935  .00000716  00000-0  67841-4 0  9995,2 56817  69.9996 183.2180 0002651 274.3374  85.7482 14.98322342 33934,6950.217,96.107,573.924,570.239,0.0
56817.0,STARLINK-5982,PAYLOAD,2024-01-07 12:37:36,14.9834783,0.0002763,69.9996,181.7034,275.155,84.9294,-0.00033552,-4.096e-05,0.0,0 STARLINK-5982,1 56817U 23078BC  24007.52611873 -.00004096  00000-0 -33552-3 0  9995,2 56817  69.9996 181.7034 0002763 275.1550  84.9294 14.98347830 34284,6950.138,96.106,573.923,570.082,0.0
56817.0,STARLINK-5982,PAYLOAD,2024-01-07 14:13:44,14.98324001,0.0002659,69.9996,181.5349,272.4925,87.593,4.5364e-05,4.48e-06,0.0,0 STARLINK-5982,1 56817U 23078BC  24007.59288140  .00000448  00000-0  45364-4 0  9999,2 56817  69.9996 181.5349 0002659 272.4925  87.5930 14.98324001 34035,6950.211,96.107,573.925,570.228,0.0
56817.0,STARLINK-5982,PAYLOAD,2024-01-07 19:02:09,14.9832521,0.0002636,69.9998,181.0302,273.438,86.6478,5.8364e-05,6.03e-06,0.0,0 STARLINK-5982,1 56817U 23078BC  24007.79316099  .00000603  00000-0  58364-4 0  9993,2 56817  69.9998 181.0302 0002636 273.4380  86.6478 14.98325210 34324,6950.208,96.107,573.905,570.241,0.0
56817.0,STARLINK-5982,PAYLOAD,2024-01-07 22:14:25,14.98325306,0.0002643,69.9998,180.6935,273.7177,86.368,5.6042e-05,5.76e-06,0.0,0 STARLINK-5982,1 56817U 23078BC  24007.92668135  .00000576  00000-0  56042-4 0  9999,2 56817  69.9998 180.6935 0002643 273.7177  86.3680 14.98325306 34087,6950.207,96.107,573.909,570.235,0.0
56817.0,STARLINK-5982,PAYLOAD,2024-01-08 14:15:45,14.98326883,0.0002858,70.0,179.0112,275.5159,84.5674,3.1095e-05,2.78e-06,0.0,0 STARLINK-5982,1 56817U 23078BC  24008.59428183  .00000278  00000-0  31095-4 0  9990,2 56817  70.0000 179.0112 0002858 275.5159  84.5674 14.98326883 34186,6950.203,96.107,574.054,570.081,0.0
56817.0,STARLINK-5982,PAYLOAD,2024-01-08 19:04:09,14.98363645,0.0002831,70.0,178.5063,269.6854,90.398,-0.00056748,-6.863e-05,0.0,0 STARLINK-5982,1 56817U 23078BC  24008.79455315 -.00006863  00000-0 -56748-3 0  9998,2 56817  70.0000 178.5063 0002831 269.6854  90.3980 14.98363645 34476,6950.089,96.105,573.921,569.986,0.0
56817.0,STARLINK-5982,PAYLOAD,2024-01-08 20:40:17,14.98343705,0.0002647,70.0,178.3381,272.6931,87.3925,-0.00022653,-2.796e-05,0.0,0 STARLINK-5982,1 56817U 23078BC  24008.86131722 -.00002796  00000-0 -22653-3 0  9998,2 56817  70.0000 178.3381 0002647 272.6931  87.3925 14.98343705 34225,6950.151,96.106,573.855,570.176,0.0
56817.0,STARLINK-5982,PAYLOAD,2024-01-09 14:17:46,14.98330215,0.0002627,70.0002,176.487,268.1422,91.9436,4.9264e-06,-3.4e-07,0.0,0 STARLINK-5982,1 56817U 23078BC  24009.59568042 -.00000034  00000-0  49264-5 0  9999,2 56817  70.0002 176.4870 0002627 268.1422  91.9436 14.98330215 34334,6950.192,96.107,573.883,570.231,0.0
56817.0,STARLINK-5982,PAYLOAD,2024-01-09 19:06:10,14.98330617,0.0002615,70.0003,175.9822,268.083,92.003,1.0808e-05,3.6e-07,0.0,0 STARLINK-5982,1 56817U 23078BC  24009.79595990  .00000036  00000-0  10808-4 0  9995,2 56817  70.0003 175.9822 0002615 268.0830  92.0030 14.98330617 34625,6950.191,96.107,573.873,570.239,0.0
56817.0,STARLINK-5982,PAYLOAD,2024-01-09 20:42:18,14.98331209,0.000265,70.0002,175.8136,270.3375,89.7481,1.6681e-05,1.06e-06,0.0,0 STARLINK-5982,1 56817U 23078BC  24009.86271939  .00000106  00000-0  16681-4 0  9990,2 56817  70.0002 175.8136 0002650 270.3375  89.7481 14.98331209 34373,6950.189,96.107,573.896,570.212,0.0
56817.0,STARLINK-5982,PAYLOAD,2024-01-10 11:07:31,14.98329072,0.0002654,70.0003,174.2993,271.1088,88.9767,-1.1624e-05,-2.32e-06,0.0,0 STARLINK-5982,1 56817U 23078BC  24010.46356132 -.00000232  00000-0 -11624-4 0  9991,2 56817  70.0003 174.2993 0002654 271.1088  88.9767 14.98329072 34465,6950.196,96.107,573.905,570.216,0.0
